{"type": "FeatureCollection", "features": [ {"type": "Feature", "properties": {"norad_id": 40664, "name": "SKY MEXICO-1", "group": "intelsat", "lat": -0.006563322965588298, "lon": -137.07921365137605, "alt_km": 35779.06162548661, "timestamp": "2025-12-09T14:52:25.833889+00:00", "meta": {"OBJECT_NAME": "SKY MEXICO-1", "OBJECT_ID": "2015-026B", "EPOCH": "2025-12-09T07:13:56.478432", "MEAN_MOTION": 1.00270797, "ECCENTRICITY": 0.00027533, "INCLINATION": 0.0247, "RA_OF_ASC_NODE": 61.5977, "ARG_OF_PERICENTER": 212.4808, "MEAN_ANOMALY": 193.9352, "EPHEMERIS_TYPE": 0, "CLASSIFICATION_TYPE": "U", "NORAD_CAT_ID": 40664, "ELEMENT_SET_NO": 999, "REV_AT_EPOCH": 3855, "BSTAR": 0, "MEAN_MOTION_DOT": -2.32e-06, "MEAN_MOTION_DDOT": 0}, "tle": {"line1": "1 40664U 15026B   25343.30134813 -.00000232  00000+0  00000+0 0  9990", "line2": "2 40664   0.0247  61.5977 0002753 212.4808 193.9352  1.00270797 38558"}}, "geometry": {"type": "Point", "coordinates": [-137.07921365137605, -0.006563322965588298]}}, {"type": "Feature", "properties": {"norad_id": 40874, "name": "INTELSAT 34 (IS-34)", "group": "intelsat", "lat": -0.02876923855569093, "lon": -113.77614303296845, "alt_km": 35785.96019219495, "timestamp": "2025-12-09T14:52:25.833901+00:00", "meta": {"OBJECT_NAME": "INTELSAT 34 (IS-34)", "OBJECT_ID": "2015-039A", "EPOCH": "2025-12-09T06:27:13.961376", "MEAN_MOTION": 1.00270047, "ECCENTRICITY": 5.746e-05, "INCLINATION": 0.014, "RA_OF_ASC_NODE": 305.5932, "ARG_OF_PERICENTER": 226.3595, "MEAN_ANOMALY": 307.6252, "EPHEMERIS_TYPE": 0, "CLASSIFICATION_TYPE": "U", "NORAD_CAT_ID": 40874, "ELEMENT_SET_NO": 999, "REV_AT_EPOCH": 3772, "BSTAR": 0, "MEAN_MOTION_DOT": -2.83e-06, "MEAN_MOTION_DDOT": 0}, "tle": {"line1": "1 40874U 15039A   25343.26891159 -.00000283  00000+0  00000+0 0  9991", "line2": "2 40874   0.0140 305.5932 0000574 226.3595 307.6252  1.00270047 37720"}}, "geometry": {"type": "Point", "coordinates": [-113.77614303296845, -0.02876923855569093]}}, {"type": "Feature", "properties": {"norad_id": 41581, "name": "INTELSAT 31 (IS-31)", "group": "intelsat", "lat": -0.02380450828644011, "lon": -153.36263769781831, "alt_km": 35779.127508400095, "timestamp": "2025-12-09T14:52:25.833912+00:00", "meta": {"OBJECT_NAME": "INTELSAT 31 (IS-31)", "OBJECT_ID": "2016-035A", "EPOCH": "2025-12-09T07:03:12.501216", "MEAN_MOTION": 1.00269203, "ECCENTRICITY": 0.00018757, "INCLINATION": 0.0179, "RA_OF_ASC_NODE": 271.4568, "ARG_OF_PERICENTER": 308.3614, "MEAN_ANOMALY": 229.2038, "EPHEMERIS_TYPE": 0, "CLASSIFICATION_TYPE": "U", "NORAD_CAT_ID": 41581, "ELEMENT_SET_NO": 999, "REV_AT_EPOCH": 3478, "BSTAR": 0, "MEAN_MOTION_DOT": -1.48e-06, "MEAN_MOTION_DDOT": 0}, "tle": {"line1": "1 41581U 16035A   25343.29389469 -.00000148  00000+0  00000+0 0  9993", "line2": "2 41581   0.0179 271.4568 0001875 308.3614 229.2038  1.00269203 34788"}}, "geometry": {"type": "Point", "coordinates": [-153.36263769781831, -0.02380450828644011]}}, {"type": "Feature", "properties": {"norad_id": 41747, "name": "INTELSAT 36 (IS-36)", "group": "intelsat", "lat": 0.01021719342392759, "lon": 10.217826306892631, "alt_km": 35783.12409768347, "timestamp": "2025-12-09T14:52:25.833924+00:00", "meta": {"OBJECT_NAME": "INTELSAT 36 (IS-36)", "OBJECT_ID": "2016-053A", "EPOCH": "2025-12-09T03:37:36.247008", "MEAN_MOTION": 1.00269853, "ECCENTRICITY": 0.00014223, "INCLINATION": 0.0118, "RA_OF_ASC_NODE": 357.5426, "ARG_OF_PERICENTER": 318.485, "MEAN_ANOMALY": 245.015, "EPHEMERIS_TYPE": 0, "CLASSIFICATION_TYPE": "U", "NORAD_CAT_ID": 41747, "ELEMENT_SET_NO": 999, "REV_AT_EPOCH": 3404, "BSTAR": 0, "MEAN_MOTION_DOT": -2.2e-07, "MEAN_MOTION_DDOT": 0}, "tle": {"line1": "1 41747U 16053A   25343.15111397 -.00000022  00000+0  00000+0 0  9996", "line2": "2 41747   0.0118 357.5426 0001422 318.4850 245.0150  1.00269853 34047"}}, "geometry": {"type": "Point", "coordinates": [10.217826306892631, 0.01021719342392759]}}, {"type": "Feature", "properties": {"norad_id": 41945, "name": "INTELSAT 32E (IS-32E)", "group": "intelsat", "lat": -0.02044421773552111, "lon": -101.46901746051394, "alt_km": 35787.02686887008, "timestamp": "2025-12-09T14:52:25.833936+00:00", "meta": {"OBJECT_NAME": "INTELSAT 32E (IS-32E)", "OBJECT_ID": "2017-007B", "EPOCH": "2025-12-09T04:48:29.456352", "MEAN_MOTION": 1.00269317, "ECCENTRICITY": 4.379e-05, "INCLINATION": 0.0262, "RA_OF_ASC_NODE": 67.3991, "ARG_OF_PERICENTER": 287.4874, "MEAN_ANOMALY": 112.2582, "EPHEMERIS_TYPE": 0, "CLASSIFICATION_TYPE": "U", "NORAD_CAT_ID": 41945, "ELEMENT_SET_NO": 999, "REV_AT_EPOCH": 3232, "BSTAR": 0, "MEAN_MOTION_DOT": -2.67e-06, "MEAN_MOTION_DDOT": 0}, "tle": {"line1": "1 41945U 17007B   25343.20034093 -.00000267  00000+0  00000+0 0  9990", "line2": "2 41945   0.0262  67.3991 0000437 287.4874 112.2582  1.00269317 32324"}}, "geometry": {"type": "Point", "coordinates": [-101.46901746051394, -0.02044421773552111]}}, {"type": "Feature", "properties": {"norad_id": 42818, "name": "INTELSAT 35E (IS-35E)", "group": "intelsat", "lat": -0.03608545894390382, "lon": -92.78913874986162, "alt_km": 35776.99243048845, "timestamp": "2025-12-09T14:52:25.833947+00:00", "meta": {"OBJECT_NAME": "INTELSAT 35E (IS-35E)", "OBJECT_ID": "2017-041A", "EPOCH": "2025-12-09T04:50:51.728640", "MEAN_MOTION": 1.0026939, "ECCENTRICITY": 0.00023175, "INCLINATION": 0.0189, "RA_OF_ASC_NODE": 332.4178, "ARG_OF_PERICENTER": 292.6301, "MEAN_ANOMALY": 211.3651, "EPHEMERIS_TYPE": 0, "CLASSIFICATION_TYPE": "U", "NORAD_CAT_ID": 42818, "ELEMENT_SET_NO": 999, "REV_AT_EPOCH": 3091, "BSTAR": 0, "MEAN_MOTION_DOT": -2.36e-06, "MEAN_MOTION_DDOT": 0}, "tle": {"line1": "1 42818U 17041A   25343.20198760 -.00000236  00000+0  00000+0 0  9996", "line2": "2 42818   0.0189 332.4178 0002317 292.6301 211.3651  1.00269390 30919"}}, "geometry": {"type": "Point", "coordinates": [-92.78913874986162, -0.03608545894390382]}}, {"type": "Feature", "properties": {"norad_id": 42950, "name": "INTELSAT 37E (IS-37E)", "group": "intelsat", "lat": -0.03431280387052102, "lon": -76.26944877802126, "alt_km": 35773.96887015673, "timestamp": "2025-12-09T14:52:25.833958+00:00", "meta": {"OBJECT_NAME": "INTELSAT 37E (IS-37E)", "OBJECT_ID": "2017-059A", "EPOCH": "2025-12-09T04:55:36.274944", "MEAN_MOTION": 1.00270728, "ECCENTRICITY": 0.00033893, "INCLINATION": 0.0168, "RA_OF_ASC_NODE": 5.8291, "ARG_OF_PERICENTER": 247.8454, "MEAN_ANOMALY": 240.4264, "EPHEMERIS_TYPE": 0, "CLASSIFICATION_TYPE": "U", "NORAD_CAT_ID": 42950, "ELEMENT_SET_NO": 999, "REV_AT_EPOCH": 3016, "BSTAR": 0, "MEAN_MOTION_DOT": -1.39e-06, "MEAN_MOTION_DDOT": 0}, "tle": {"line1": "1 42950U 17059A   25343.20528096 -.00000139  00000+0  00000+0 0  9993", "line2": "2 42950   0.0168   5.8291 0003389 247.8454 240.4264  1.00270728 30168"}}, "geometry": {"type": "Point", "coordinates": [-76.26944877802126, -0.03431280387052102]}}, {"type": "Feature", "properties": {"norad_id": 43632, "name": "AZERSPACE 2 (IS-38)", "group": "intelsat", "lat": 0.004207536830684687, "lon": -13.162288460767446, "alt_km": 35786.10459146845, "timestamp": "2025-12-09T14:52:25.833970+00:00", "meta": {"OBJECT_NAME": "AZERSPACE 2 (IS-38)", "OBJECT_ID": "2018-074A", "EPOCH": "2025-12-09T05:13:27.067296", "MEAN_MOTION": 1.00270316, "ECCENTRICITY": 0.00015572, "INCLINATION": 0.0166, "RA_OF_ASC_NODE": 339.3776, "ARG_OF_PERICENTER": 280.4096, "MEAN_ANOMALY": 301.8968, "EPHEMERIS_TYPE": 0, "CLASSIFICATION_TYPE": "U", "NORAD_CAT_ID": 43632, "ELEMENT_SET_NO": 999, "REV_AT_EPOCH": 2654, "BSTAR": 0, "MEAN_MOTION_DOT": 1.39e-06, "MEAN_MOTION_DDOT": 0}, "tle": {"line1": "1 43632U 18074A   25343.21767439  .00000139  00000+0  00000+0 0  9995", "line2": "2 43632   0.0166 339.3776 0001557 280.4096 301.8968  1.00270316 26540"}}, "geometry": {"type": "Point", "coordinates": [-13.162288460767446, 0.004207536830684687]}}, {"type": "Feature", "properties": {"norad_id": 43633, "name": "HORIZONS-3E", "group": "intelsat", "lat": -0.017907113133447356, "lon": 110.71955598177105, "alt_km": 35791.89936153684, "timestamp": "2025-12-09T14:52:25.833982+00:00", "meta": {"OBJECT_NAME": "HORIZONS-3E", "OBJECT_ID": "2018-074B", "EPOCH": "2025-12-09T04:31:38.517600", "MEAN_MOTION": 1.00269202, "ECCENTRICITY": 0.00012296, "INCLINATION": 0.0428, "RA_OF_ASC_NODE": 177.4318, "ARG_OF_PERICENTER": 102.348, "MEAN_ANOMALY": 35.3276, "EPHEMERIS_TYPE": 0, "CLASSIFICATION_TYPE": "U", "NORAD_CAT_ID": 43633, "ELEMENT_SET_NO": 999, "REV_AT_EPOCH": 2643, "BSTAR": 0, "MEAN_MOTION_DOT": -2.9e-07, "MEAN_MOTION_DDOT": 0}, "tle": {"line1": "1 43633U 18074B   25343.18864025 -.00000029  00000+0  00000+0 0  9990", "line2": "2 43633   0.0428 177.4318 0001229 102.3480  35.3276  1.00269202 26431"}}, "geometry": {"type": "Point", "coordinates": [110.71955598177105, -0.017907113133447356]}}, {"type": "Feature", "properties": {"norad_id": 44333, "name": "AT&T T-16", "group": "intelsat", "lat": 0.003854815287120006, "lon": -159.14459893505915, "alt_km": 35785.47657334148, "timestamp": "2025-12-09T14:52:25.833993+00:00", "meta": {"OBJECT_NAME": "AT&T T-16", "OBJECT_ID": "2019-034A", "EPOCH": "2025-12-09T07:00:23.750784", "MEAN_MOTION": 1.0026828, "ECCENTRICITY": 5.427e-05, "INCLINATION": 0.0233, "RA_OF_ASC_NODE": 61.767, "ARG_OF_PERICENTER": 93.6898, "MEAN_ANOMALY": 287.0698, "EPHEMERIS_TYPE": 0, "CLASSIFICATION_TYPE": "U", "NORAD_CAT_ID": 44333, "ELEMENT_SET_NO": 999, "REV_AT_EPOCH": 2372, "BSTAR": 0, "MEAN_MOTION_DOT": -1.13e-06, "MEAN_MOTION_DDOT": 0}, "tle": {"line1": "1 44333U 19034A   25343.29194156 -.00000113  00000+0  00000+0 0  9992", "line2": "2 44333   0.0233  61.7670 0000542  93.6898 287.0698  1.00268280 23729"}}, "geometry": {"type": "Point", "coordinates": [-159.14459893505915, 0.003854815287120006]}}]}